GPS BIIR-2  (PRN 13)    
1 24876U 97035A   23058.13662628 -.00000036  00000+0  00000+0 0  9991
2 24876  55.5486 145.7331 0065953  52.1049 308.5185  2.00564214187768
GPS BIIR-4  (PRN 20)    
1 26360U 00025A   23058.74790203 -.00000041  00000+0  00000+0 0  9998
2 26360  54.2730  68.3403 0044663 196.3276 334.4216  2.00553643167095
GPS BIIR-8  (PRN 16)    
1 27663U 03005A   23058.51229566  .00000043  00000+0  00000+0 0  9991
2 27663  55.3504 262.9216 0132330  43.6372 291.8885  2.00577029147121
GPS BIIR-9  (PRN 21)    
1 27704U 03010A   23058.41478455 -.00000102  00000+0  00000+0 0  9992
2 27704  55.0947  12.9958 0249835 313.3640 171.1466  2.00566808145929
GPS BIIR-11 (PRN 19)    
1 28190U 04009A   23058.67262769 -.00000089  00000+0  00000+0 0  9992
2 28190  55.8330 323.9530 0089593 129.5429 120.1100  2.00571650138763
GPS BIIR-13 (PRN 02)    
1 28474U 04045A   23058.77530515 -.00000101  00000+0  00000+0 0  9990
2 28474  55.4198  13.2191 0201863 283.9599 250.1027  2.00562675134256
GPS BIIRM-1 (PRN 17)    
1 28874U 05038A   23058.08094583 -.00000087  00000+0  00000+0 0  9994
2 28874  55.8899 321.4206 0138789 278.5997 290.8619  2.00558295127647
GPS BIIRM-2 (PRN 31)    
1 29486U 06042A   23058.43170404  .00000029  00000+0  00000+0 0  9991
2 29486  54.6950 199.1441 0106715  27.8147 351.9057  2.00564600120217
GPS BIIRM-3 (PRN 12)    
1 29601U 06052A   23058.85460569  .00000047  00000+0  00000+0 0  9991
2 29601  55.3650 261.8569 0087070  76.5341 284.4628  2.00566119119273
GPS BIIRM-4 (PRN 15)    
1 32260U 07047A   23058.15909551 -.00000043  00000+0  00000+0 0  9990
2 32260  53.3913 129.9829 0145357  67.3387 294.2405  2.00562117112620
GPS BIIRM-5 (PRN 29)    
1 32384U 07062A   23058.21438836 -.00000088  00000+0  00000+0 0  9993
2 32384  56.0166 322.2102 0020781 141.5657  27.9201  2.00575497111323
GPS BIIRM-6 (PRN 07)    
1 32711U 08012A   23058.07217007  .00000030  00000+0  00000+0 0  9998
2 32711  54.4596 198.0357 0170132 233.1439 125.2528  2.00573112109568
GPS BIIRM-8 (PRN 05)    
1 35752U 09043A   23058.54840924 -.00000036  00000+0  00000+0 0  9990
2 35752  55.2763  75.2732 0055672  63.6524 292.6527  2.00569968 99173
GPS BIIF-1  (PRN 25)    
1 36585U 10022A   23058.13246039  .00000047  00000+0  00000+0 0  9997
2 36585  54.6575 257.2290 0109646  58.6887 117.6051  2.00552086 93401
GPS BIIF-2  (PRN 01)    
1 37753U 11036A   23058.52863682 -.00000092  00000+0  00000+0 0  9994
2 37753  56.7012  18.7880 0122516  53.1005 129.7211  2.00566977 85098
GPS BIIF-3  (PRN 24)    
1 38833U 12053A   23058.25907970  .00000019  00000+0  00000+0 0  9991
2 38833  53.5175 192.9211 0135727  50.1892 310.9639  2.00564529 76140
GPS BIIF-4  (PRN 27)    
1 39166U 13023A   23058.11813141 -.00000081  00000+0  00000+0 0  9990
2 39166  55.5090 317.6914 0112367  39.4841 321.3696  2.00565060 71698
GPS BIIF-5  (PRN 30)    
1 39533U 14008A   23056.12565192  .00000038  00000+0  00000+0 0  9992
2 39533  53.6076 198.5427 0062879 210.2339 149.3655  2.00567615 65455
GPS BIIF-6  (PRN 06)    
1 39741U 14026A   23058.89507904 -.00000093  00000+0  00000+0 0  9998
2 39741  56.6580  18.2978 0030860 310.0169  49.7050  2.00570715 64369
GPS BIIF-7  (PRN 09)    
1 40105U 14045A   23058.48947852 -.00000043  00000+0  00000+0 0  9995
2 40105  54.7537 136.6172 0022488 115.1174 245.1569  2.00564442 61896
GPS BIIF-8  (PRN 03)    
1 40294U 14068A   23058.36132650 -.00000034  00000+0  00000+0 0  9998
2 40294  56.0192  77.8817 0043044  56.1532 304.3024  2.00559158 61029
GPS BIIF-9  (PRN 26)    
1 40534U 15013A   23058.49492048  .00000050  00000+0  00000+0 0  9997
2 40534  53.5566 254.1196 0077725  24.4781 335.9038  2.00566289 57641
GPS BIIF-10 (PRN 08)    
1 40730U 15033A   23058.15607133 -.00000079  00000+0  00000+0 0  9995
2 40730  55.0014 316.3956 0083015  11.2633 348.9634  2.00565027 55821
GPS BIIF-11 (PRN 10)    
1 41019U 15062A   23058.21024326 -.00000035  00000+0  00000+0 0  9994
2 41019  56.0049  77.7348 0086109 221.4356 137.9532  2.00562475 53643
GPS BIIF-12 (PRN 32)    
1 41328U 16007A   23058.29737739 -.00000041  00000+0  00000+0 0  9991
2 41328  54.9639 137.3577 0068520 232.4718 126.9439  2.00558869 51651
GPS BIII-1  (PRN 04)    
1 43873U 18109A   23057.44702288 -.00000032  00000+0  00000+0 0  9990
2 43873  55.1418 139.8659 0023594 192.0942 163.5818  2.00559631 30862
GPS BIII-2  (PRN 18)    
1 44506U 19056A   23058.33963918 -.00000094  00000+0  00000+0 0  9992
2 44506  55.7774  18.9259 0029966 186.2738 354.8271  2.00562113 25880
GPS BIII-3  (PRN 23)    
1 45854U 20041A   23058.34619640 -.00000035  00000+0  00000+0 0  9991
2 45854  55.7257  76.1956 0030230 186.9620 300.9451  2.00566669 19858
GPS BIII-4  (PRN 14)    
1 46826U 20078A   23058.01797847  .00000041  00000+0  00000+0 0  9997
2 46826  54.4116 259.7552 0027531 187.9823  39.0083  2.00564161 17310
GPS BIII-5  (PRN 11)    
1 48859U 21054A   23059.12837733 -.00000093  00000+0  00000+0 0  9990
2 48859  55.2898  20.7700 0008818 219.7888 272.3641  2.00559676 12577
GPS BIII-6  (PRN 28)    
1 55268U 23009A   23057.89094734  .00000030  00000+0  00000+0 0  9992
2 55268  55.0964 195.8437 0008343 100.2506 259.8105  2.00569614  1055
